{
  "norad_id": 63240,
  "name": "AL MUNTHER",
  "history": [
    {
      "epoch": "2026-05-05T16:40:34.761792Z",
      "apogee_km": 477.4286306102513,
      "perigee_km": 471.22988963134503,
      "latitude_deg": 8.319656174339481e-05,
      "longitude_deg": -93.05219760538563,
      "height_km": 475.3573433056264,
      "semi_major_axis_km": 6852.466260120797,
      "eccentricity": 0.0004523,
      "inclination_deg": 97.3928,
      "raan_deg": 20.6588,
      "arg_perigee_deg": 312.1667,
      "mean_anomaly_deg": 47.919,
      "mean_motion_rev_day": 15.3049672
    },
    {
      "epoch": "2026-05-06T05:13:45.366816Z",
      "apogee_km": 477.3163235295033,
      "perigee_km": 471.2368621899177,
      "latitude_deg": 4.912346017670658e-06,
      "longitude_deg": 78.65869172110914,
      "height_km": 475.46051605387476,
      "semi_major_axis_km": 6852.41359285971,
      "eccentricity": 0.0004436,
      "inclination_deg": 97.3925,
      "raan_deg": 21.1794,
      "arg_perigee_deg": 309.2899,
      "mean_anomaly_deg": 50.7948,
      "mean_motion_rev_day": 15.30514365
    },
    {
      "epoch": "2026-05-07T15:44:57.460704Z",
      "apogee_km": 477.157874569667,
      "perigee_km": 471.1730735888059,
      "latitude_deg": 5.244032929682554e-05,
      "longitude_deg": -79.12759795886029,
      "height_km": 475.6852604651592,
      "semi_major_axis_km": 6852.302474079236,
      "eccentricity": 0.0004367,
      "inclination_deg": 97.3924,
      "raan_deg": 22.6112,
      "arg_perigee_deg": 302.0833,
      "mean_anomaly_deg": 57.9984,
      "mean_motion_rev_day": 15.30551594
    },
    {
      "epoch": "2026-05-08T05:52:15.162816Z",
      "apogee_km": 477.08439942618315,
      "perigee_km": 471.1448677102062,
      "latitude_deg": -1.570439412740283e-07,
      "longitude_deg": 69.0544953057759,
      "height_km": 475.77494231229025,
      "semi_major_axis_km": 6852.251633568195,
      "eccentricity": 0.0004334,
      "inclination_deg": 97.3925,
      "raan_deg": 23.197,
      "arg_perigee_deg": 299.2045,
      "mean_anomaly_deg": 60.8762,
      "mean_motion_rev_day": 15.30568628
    }
  ]
}